{
  "type": "FeatureCollection",
  "generator": "overpass-turbo",
  "copyright": "The data included in this document is from www.openstreetmap.org. The data is made available under ODbL.",
  "timestamp": "2026-01-18T09:06:02Z",
  "features": [
    {
      "type": "Feature",
      "properties": {
        "@id": "way/26963691",
        "bicycle": "no",
        "hazard": "falling_rocks",
        "highway": "path",
        "hiking": "yes",
        "horse": "no",
        "name": "Kellerleitensteig",
        "ref": "KR 1",
        "sac_scale": "hiking",
        "surface": "fine_gravel",
        "trail_visibility": "excellent"
      },
      "geometry": {
        "type": "LineString",
        "coordinates": [
          [11.0808707, 47.516608],
          [11.0808376, 47.5164913],
          [11.080846, 47.5164402],
          [11.0808894, 47.5163872],
          [11.0808445, 47.5161494],
          [11.0807512, 47.516073],
          [11.0807339, 47.5160079],
          [11.0806763, 47.5159592],
          [11.080657, 47.5158384],
          [11.0806187, 47.5157764],
          [11.0806057, 47.515716],
          [11.0804948, 47.5155731],
          [11.0804869, 47.5154561],
          [11.0804501, 47.5154009],
          [11.0804401, 47.5152842],
          [11.0803403, 47.5152046],
          [11.0803191, 47.5151519],
          [11.0802954, 47.5150998],
          [11.0802513, 47.5150681],
          [11.0802183, 47.5150128],
          [11.0801668, 47.514957],
          [11.0800872, 47.5147997],
          [11.0800492, 47.5146776],
          [11.0800051, 47.514647],
          [11.0798683, 47.51461],
          [11.0798389, 47.5145721],
          [11.0798208, 47.5144534],
          [11.0797851, 47.514401],
          [11.0796681, 47.5143163],
          [11.0796206, 47.5142618],
          [11.0795658, 47.5141412],
          [11.0795183, 47.5140925],
          [11.0794635, 47.5140565],
          [11.0793799, 47.51404],
          [11.0792071, 47.513899],
          [11.0791898, 47.5138377],
          [11.0791495, 47.5137958],
          [11.0791207, 47.5137375],
          [11.0790532, 47.5137018],
          [11.0790012, 47.5136499],
          [11.0789896, 47.5135984],
          [11.0790127, 47.5134174],
          [11.0790012, 47.5133581],
          [11.0789199, 47.513268],
          [11.0789738, 47.5130974],
          [11.0789888, 47.5129759],
          [11.0789912, 47.5129096],
          [11.0789572, 47.5128446],
          [11.0789379, 47.5127756],
          [11.0788553, 47.5126697],
          [11.078701, 47.5125903],
          [11.078631, 47.5125517],
          [11.0785878, 47.5124563],
          [11.0784892, 47.512316],
          [11.0783905, 47.5122822],
          [11.0783415, 47.5122238],
          [11.0783401, 47.5120974],
          [11.0782926, 47.5120176],
          [11.0781587, 47.5119181],
          [11.0780909, 47.5117345],
          [11.0779863, 47.5116447],
          [11.0779411, 47.5115886],
          [11.0778101, 47.5114942],
          [11.0776833, 47.5114222],
          [11.0776084, 47.5113298],
          [11.0775274, 47.511266],
          [11.077374, 47.5111984],
          [11.0773132, 47.5111662],
          [11.0772235, 47.5110267],
          [11.07716, 47.5109597],
          [11.0771112, 47.510933],
          [11.0770815, 47.5109065]
        ]
      },
      "id": "way/26963691"
    },
    {
      "type": "Feature",
      "properties": {
        "@id": "way/27389491",
        "foot": "yes",
        "highway": "path",
        "motor_vehicle": "no",
        "name": "Schartenkopfweg",
        "sac_scale": "mountain_hiking",
        "width": "0.7"
      },
      "geometry": {
        "type": "LineString",
        "coordinates": [
          [11.0856036, 47.597363],
          [11.0856423, 47.5973],
          [11.0858185, 47.5973179],
          [11.0859948, 47.5972784],
          [11.0861794, 47.5971854],
          [11.0864763, 47.597061],
          [11.0867106, 47.5969727],
          [11.0869356, 47.5969603],
          [11.0871775, 47.5969111],
          [11.0872421, 47.5969028],
          [11.087343, 47.5968435],
          [11.0875082, 47.596947],
          [11.0875747, 47.596917],
          [11.087635, 47.5968749],
          [11.0877875, 47.5969593],
          [11.0878857, 47.5968647],
          [11.0880024, 47.5968126],
          [11.0880287, 47.5967187],
          [11.0881318, 47.5966938],
          [11.0881668, 47.5966573],
          [11.0881991, 47.5966938],
          [11.0883319, 47.5968307],
          [11.0885148, 47.5969654],
          [11.0886165, 47.5967229],
          [11.0886665, 47.5965559],
          [11.0887556, 47.5964708],
          [11.0887831, 47.596523],
          [11.0888938, 47.5965518],
          [11.0890091, 47.5968012],
          [11.0890669, 47.5968012],
          [11.0891876, 47.59662],
          [11.0893474, 47.5964174],
          [11.089358, 47.596404],
          [11.08949, 47.596467],
          [11.08966, 47.5965479],
          [11.0898147, 47.5965772],
          [11.0900238, 47.5965534],
          [11.0901543, 47.5965146],
          [11.0902823, 47.5965043],
          [11.0902866, 47.596504],
          [11.0904427, 47.5964883],
          [11.0906472, 47.5964419],
          [11.0907484, 47.596439],
          [11.0908502, 47.5964813],
          [11.0910116, 47.5964903],
          [11.0911525, 47.5964261],
          [11.0913368, 47.5963337],
          [11.0916095, 47.5963071],
          [11.091819, 47.5963166],
          [11.0921189, 47.5962547],
          [11.0924426, 47.5961738],
          [11.09275, 47.5960996],
          [11.0929239, 47.5960687]
        ]
      },
      "id": "way/27389491"
    },
    {
      "type": "Feature",
      "properties": {
        "@id": "way/27390979",
        "highway": "path",
        "name": "Mandlweg",
        "sac_scale": "mountain_hiking",
        "surface": "dirt",
        "width": "0.7"
      },
      "geometry": {
        "type": "LineString",
        "coordinates": [
          [11.1033742, 47.5860602],
          [11.1034621, 47.5860951],
          [11.1036054, 47.5860981],
          [11.1038416, 47.5861461],
          [11.1040791, 47.5861806],
          [11.1044328, 47.5862551],
          [11.1046854, 47.586304],
          [11.1047874, 47.586306],
          [11.1048406, 47.5862843],
          [11.1048785, 47.5862627],
          [11.104923, 47.5862883],
          [11.1049499, 47.586334],
          [11.1050119, 47.5863428],
          [11.1050643, 47.5863364],
          [11.1050556, 47.5862838],
          [11.1049776, 47.5862013],
          [11.1048428, 47.5861384],
          [11.1047109, 47.5860543],
          [11.1045692, 47.5859443],
          [11.1044513, 47.5858601],
          [11.1044064, 47.5858106],
          [11.104415, 47.5857356],
          [11.1043275, 47.5855529],
          [11.1043815, 47.5854537],
          [11.1044333, 47.5853411],
          [11.1045422, 47.5851694],
          [11.1046355, 47.5850433],
          [11.1046956, 47.5849781],
          [11.1048383, 47.5849018],
          [11.1049547, 47.5848994],
          [11.1050486, 47.5848515],
          [11.1051876, 47.5848669],
          [11.1053255, 47.5848543],
          [11.1052217, 47.5847521],
          [11.105176, 47.5847358],
          [11.1051619, 47.5847076],
          [11.1053021, 47.5846606],
          [11.1054121, 47.5846387],
          [11.1055251, 47.5846389],
          [11.1059172, 47.5845885],
          [11.1060212, 47.5845471],
          [11.1061118, 47.5845323],
          [11.1061303, 47.5844753],
          [11.1061893, 47.5844453],
          [11.1062773, 47.584472],
          [11.1063022, 47.584516],
          [11.1063894, 47.5845527],
          [11.1064744, 47.5845466],
          [11.1065261, 47.5845129],
          [11.1067403, 47.5844956],
          [11.1069228, 47.5844118],
          [11.1068874, 47.5842985],
          [11.1069321, 47.5842042],
          [11.1070902, 47.5841964],
          [11.1073584, 47.5841126],
          [11.1073528, 47.5840512],
          [11.1075229, 47.5839989],
          [11.1077495, 47.5839283],
          [11.1079054, 47.5837967],
          [11.1080448, 47.583716],
          [11.1082411, 47.5837383],
          [11.108517, 47.5836564],
          [11.1086657, 47.5836061],
          [11.1088501, 47.5834136],
          [11.1091585, 47.5833504],
          [11.1092218, 47.5832397],
          [11.1093483, 47.5831724],
          [11.1094432, 47.5831566],
          [11.1095935, 47.5830578],
          [11.109633, 47.5828838],
          [11.1098465, 47.5828165],
          [11.1098861, 47.5827612],
          [11.1099616, 47.5827319],
          [11.1100284, 47.5827582],
          [11.1101515, 47.5827096],
          [11.1102746, 47.5826999],
          [11.1105159, 47.582789],
          [11.1106244, 47.5828182],
          [11.1107475, 47.5828214],
          [11.1108155, 47.5827356],
          [11.1109484, 47.5827598],
          [11.1110634, 47.5827647],
          [11.1113257, 47.582687],
          [11.1113792, 47.5827096],
          [11.1114715, 47.5826756],
          [11.1115622, 47.5826594],
          [11.1117177, 47.5827291],
          [11.1118408, 47.5827582],
          [11.1120353, 47.5827993],
          [11.1122032, 47.5829169],
          [11.1123544, 47.5830781],
          [11.1127608, 47.5832326],
          [11.1128783, 47.583246],
          [11.1129515, 47.5833184],
          [11.1132082, 47.5834211],
          [11.1134046, 47.5834724],
          [11.1136719, 47.5834758],
          [11.1139309, 47.5834779],
          [11.1142226, 47.5834013],
          [11.1143478, 47.5834204]
        ]
      },
      "id": "way/27390979"
    }
  ]
}
